start=new Date('2023-01-23T00:00:00.000Z').valueOf();
sats=[{"TLE_LINE1":"1 45774U 20038AW  23022.46094723  .00004626  00000-0  32921-3 0  9992","OBJECT_NAME":"STARLINK-1485","MEAN_MOTION_DOT":"0.00004626","SITE":"AFETR","EPHEMERIS_TYPE":"0","APOAPSIS":"547.958","DECAY_DATE":null,"TIME_SYSTEM":"UTC","OBJECT_TYPE":"PAYLOAD","RA_OF_ASC_NODE":"284.2877","PERIOD":"95.592","COUNTRY_CODE":"US","OBJECT_ID":"2020-038AW","REV_AT_EPOCH":"14571","PERIAPSIS":"546.458","RCS_SIZE":"LARGE","MEAN_MOTION_DDOT":"0.0000000000000","CENTER_NAME":"EARTH","SEMIMAJOR_AXIS":"6925.343","TLE_LINE2":"2 45774  53.0520 284.2877 0001083  94.3836 265.7277 15.06401883145717","EPOCH":"2023-01-22T11:03:45.840672","MEAN_ELEMENT_THEORY":"SGP4","INCLINATION":"53.0520","LAUNCH_DATE":"2020-06-13","BSTAR":"0.00032921000000","ARG_OF_PERICENTER":"94.3836","REF_FRAME":"TEME","NORAD_CAT_ID":"45774","CLASSIFICATION_TYPE":"U","ECCENTRICITY":"0.00010830","GP_ID":"223589630","MEAN_MOTION":"15.06401883","MEAN_ANOMALY":"265.7277","ELEMENT_SET_NO":"999","FILE":"3757713"},{"MEAN_MOTION_DOT":"0.00040157","SITE":"AFETR","APOAPSIS":"535.971","EPHEMERIS_TYPE":"0","OBJECT_TYPE":"PAYLOAD","TIME_SYSTEM":"UTC","DECAY_DATE":null,"TLE_LINE1":"1 45775U 20038AX  23022.42487788  .00040157  00000-0  24207-2 0  9992","OBJECT_NAME":"STARLINK-1488","RCS_SIZE":"LARGE","COUNTRY_CODE":"US","PERIOD":"95.339","RA_OF_ASC_NODE":"283.3432","PERIAPSIS":"533.967","OBJECT_ID":"2020-038AX","REV_AT_EPOCH":"14557","REF_FRAME":"TEME","LAUNCH_DATE":"2020-06-13","ARG_OF_PERICENTER":"97.6865","BSTAR":"0.00242070000000","CLASSIFICATION_TYPE":"U","NORAD_CAT_ID":"45775","CENTER_NAME":"EARTH","MEAN_MOTION_DDOT":"0.0000000000000","EPOCH":"2023-01-22T10:11:49.448832","TLE_LINE2":"2 45775  53.0531 283.3432 0001450  97.6865 262.4290 15.10404030145578","SEMIMAJOR_AXIS":"6913.104","MEAN_ELEMENT_THEORY":"SGP4","INCLINATION":"53.0531","FILE":"3757619","ELEMENT_SET_NO":"999","GP_ID":"223587438","ECCENTRICITY":"0.00014500","MEAN_MOTION":"15.10404030","MEAN_ANOMALY":"262.4290"},{"REF_FRAME":"TEME","ARG_OF_PERICENTER":"83.9228","BSTAR":"0.00026290000000","LAUNCH_DATE":"2020-06-13","CLASSIFICATION_TYPE":"U","NORAD_CAT_ID":"45776","CENTER_NAME":"EARTH","MEAN_MOTION_DDOT":"0.0000000000000","INCLINATION":"53.0520","TLE_LINE2":"2 45776  53.0520 283.0519 0000875  83.9228 276.1860 15.06400704145755","SEMIMAJOR_AXIS":"6925.346","MEAN_ELEMENT_THEORY":"SGP4","EPOCH":"2023-01-22T17:41:49.911072","FILE":"3758066","ELEMENT_SET_NO":"999","MEAN_ANOMALY":"276.1860","GP_ID":"223597084","MEAN_MOTION":"15.06400704","ECCENTRICITY":"0.00008750","APOAPSIS":"547.817","EPHEMERIS_TYPE":"0","MEAN_MOTION_DOT":"0.00003637","SITE":"AFETR","OBJECT_TYPE":"PAYLOAD","TIME_SYSTEM":"UTC","DECAY_DATE":null,"OBJECT_NAME":"STARLINK-1489","TLE_LINE1":"1 45776U 20038AY  23022.73738323  .00003637  00000-0  26290-3 0  9998","RCS_SIZE":"LARGE","COUNTRY_CODE":"US","RA_OF_ASC_NODE":"283.0519","PERIOD":"95.592","PERIAPSIS":"546.605","REV_AT_EPOCH":"14575","OBJECT_ID":"2020-038AY"},{"OBJECT_ID":"2020-038AZ","REV_AT_EPOCH":"14572","PERIAPSIS":"540.513","RA_OF_ASC_NODE":"284.2021","PERIOD":"95.504","COUNTRY_CODE":"US","RCS_SIZE":"LARGE","TLE_LINE1":"1 45777U 20038AZ  23022.45973037  .00038423  00000-0  24891-2 0  9996","OBJECT_NAME":"STARLINK-1490","DECAY_DATE":null,"TIME_SYSTEM":"UTC","OBJECT_TYPE":"PAYLOAD","MEAN_MOTION_DOT":"0.00038423","SITE":"AFETR","APOAPSIS":"545.423","EPHEMERIS_TYPE":"0","MEAN_MOTION":"15.07786436","GP_ID":"223589800","ECCENTRICITY":"0.00035470","MEAN_ANOMALY":"257.1779","ELEMENT_SET_NO":"999","FILE":"3757713","TLE_LINE2":"2 45777  53.0539 284.2021 0003547 102.9607 257.1779 15.07786436145724","SEMIMAJOR_AXIS":"6921.103","EPOCH":"2023-01-22T11:02:00.703968","MEAN_ELEMENT_THEORY":"SGP4","INCLINATION":"53.0539","MEAN_MOTION_DDOT":"0.0000000000000","CENTER_NAME":"EARTH","CLASSIFICATION_TYPE":"U","NORAD_CAT_ID":"45777","LAUNCH_DATE":"2020-06-13","ARG_OF_PERICENTER":"102.9607","BSTAR":"0.00248910000000","REF_FRAME":"TEME"},{"FILE":"3758066","ELEMENT_SET_NO":"999","MEAN_ANOMALY":"265.6532","GP_ID":"223597591","ECCENTRICITY":"0.00020500","MEAN_MOTION":"15.06401301","NORAD_CAT_ID":"45778","CLASSIFICATION_TYPE":"U","REF_FRAME":"TEME","BSTAR":"0.00021653000000","ARG_OF_PERICENTER":"94.4691","LAUNCH_DATE":"2020-06-13","INCLINATION":"53.0529","TLE_LINE2":"2 45778  53.0529 283.1405 0002050  94.4691 265.6532 15.06401301145741","SEMIMAJOR_AXIS":"6925.345","EPOCH":"2023-01-22T17:09:59.535360","MEAN_ELEMENT_THEORY":"SGP4","CENTER_NAME":"EARTH","MEAN_MOTION_DDOT":"0.0000000000000","RCS_SIZE":"LARGE","PERIAPSIS":"545.790","REV_AT_EPOCH":"14574","OBJECT_ID":"2020-038BA","COUNTRY_CODE":"US","PERIOD":"95.592","RA_OF_ASC_NODE":"283.1405","TIME_SYSTEM":"UTC","OBJECT_TYPE":"PAYLOAD","DECAY_DATE":null,"APOAPSIS":"548.629","EPHEMERIS_TYPE":"0","SITE":"AFETR","MEAN_MOTION_DOT":"0.00002945","OBJECT_NAME":"STARLINK-1491","TLE_LINE1":"1 45778U 20038BA  23022.71527240  .00002945  00000-0  21653-3 0  9991"},{"TLE_LINE1":"1 45779U 20038BB  23022.73158549  .00052321  00000-0  28478-2 0  9990","OBJECT_NAME":"STARLINK-1492","SITE":"AFETR","MEAN_MOTION_DOT":"0.00052321","APOAPSIS":"526.104","EPHEMERIS_TYPE":"0","TIME_SYSTEM":"UTC","OBJECT_TYPE":"PAYLOAD","DECAY_DATE":null,"COUNTRY_CODE":"US","RA_OF_ASC_NODE":"279.8239","PERIOD":"95.115","PERIAPSIS":"522.213","OBJECT_ID":"2020-038BB","REV_AT_EPOCH":"14579","RCS_SIZE":"LARGE","CENTER_NAME":"EARTH","MEAN_MOTION_DDOT":"0.0000000000000","SEMIMAJOR_AXIS":"6902.293","TLE_LINE2":"2 45779  53.0561 279.8239 0002819 132.2704 227.8528 15.13953895145792","EPOCH":"2023-01-22T17:33:28.986336","MEAN_ELEMENT_THEORY":"SGP4","INCLINATION":"53.0561","REF_FRAME":"TEME","LAUNCH_DATE":"2020-06-13","BSTAR":"0.00284780000000","ARG_OF_PERICENTER":"132.2704","CLASSIFICATION_TYPE":"U","NORAD_CAT_ID":"45779","ELEMENT_SET_NO":"999","ECCENTRICITY":"0.00028190","GP_ID":"223597098","MEAN_MOTION":"15.13953895","MEAN_ANOMALY":"227.8528","FILE":"3758067"},{"EPHEMERIS_TYPE":"0","APOAPSIS":"548.440","MEAN_MOTION_DOT":"0.00005911","SITE":"AFETR","TIME_SYSTEM":"UTC","OBJECT_TYPE":"PAYLOAD","DECAY_DATE":null,"OBJECT_NAME":"STARLINK-1496","TLE_LINE1":"1 45780U 20038BC  23021.46205167  .00005911  00000-0  41539-3 0  9997","RCS_SIZE":"LARGE","COUNTRY_CODE":"US","RA_OF_ASC_NODE":"288.7586","PERIOD":"95.592","PERIAPSIS":"546.004","REV_AT_EPOCH":"14536","OBJECT_ID":"2020-038BC","REF_FRAME":"TEME","ARG_OF_PERICENTER":"96.3141","BSTAR":"0.00041539000000","LAUNCH_DATE":"2020-06-13","NORAD_CAT_ID":"45780","CLASSIFICATION_TYPE":"U","CENTER_NAME":"EARTH","MEAN_MOTION_DDOT":"0.0000000000000","INCLINATION":"53.0551","SEMIMAJOR_AXIS":"6925.357","TLE_LINE2":"2 45780  53.0551 288.7586 0001759  96.3141 263.8048 15.06397299145366","EPOCH":"2023-01-21T11:05:21.264288","MEAN_ELEMENT_THEORY":"SGP4","FILE":"3756914","ELEMENT_SET_NO":"999","MEAN_ANOMALY":"263.8048","ECCENTRICITY":"0.00017590","GP_ID":"223571957","MEAN_MOTION":"15.06397299"},{"NORAD_CAT_ID":"45781","CLASSIFICATION_TYPE":"U","REF_FRAME":"TEME","BSTAR":"-0.00033184000000","ARG_OF_PERICENTER":"150.9842","LAUNCH_DATE":"2020-06-13","INCLINATION":"53.0515","SEMIMAJOR_AXIS":"6925.343","TLE_LINE2":"2 45781  53.0515 284.4920 0000686 150.9842 209.1185 15.06401792145511","EPOCH":"2023-01-22T10:00:02.914560","MEAN_ELEMENT_THEORY":"SGP4","CENTER_NAME":"EARTH","MEAN_MOTION_DDOT":"0.0000000000000","FILE":"3757713","ELEMENT_SET_NO":"999","MEAN_ANOMALY":"209.1185","ECCENTRICITY":"0.00006860","GP_ID":"223589804","MEAN_MOTION":"15.06401792","OBJECT_TYPE":"PAYLOAD","TIME_SYSTEM":"UTC","DECAY_DATE":null,"EPHEMERIS_TYPE":"0","APOAPSIS":"547.683","SITE":"AFETR","MEAN_MOTION_DOT":"-0.00005221","OBJECT_NAME":"STARLINK-1497","TLE_LINE1":"1 45781U 20038BD  23022.41670040 -.00005221  00000-0 -33184-3 0  9993","RCS_SIZE":"LARGE","PERIAPSIS":"546.733","REV_AT_EPOCH":"14551","OBJECT_ID":"2020-038BD","COUNTRY_CODE":"US","RA_OF_ASC_NODE":"284.4920","PERIOD":"95.592"},{"OBJECT_ID":"2020-038BE","REV_AT_EPOCH":"14561","PERIAPSIS":"523.827","PERIOD":"95.141","RA_OF_ASC_NODE":"279.4036","COUNTRY_CODE":"US","RCS_SIZE":"LARGE","TLE_LINE1":"1 45782U 20038BE  23022.71590901  .00041058  00000-0  22678-2 0  9995","OBJECT_NAME":"STARLINK-1498","DECAY_DATE":null,"OBJECT_TYPE":"PAYLOAD","TIME_SYSTEM":"UTC","SITE":"AFETR","MEAN_MOTION_DOT":"0.00041058","APOAPSIS":"526.987","EPHEMERIS_TYPE":"0","ECCENTRICITY":"0.00022880","GP_ID":"223597601","MEAN_MOTION":"15.13543134","MEAN_ANOMALY":"243.7330","ELEMENT_SET_NO":"999","FILE":"3758067","SEMIMAJOR_AXIS":"6903.542","TLE_LINE2":"2 45782  53.0530 279.4036 0002288 116.3897 243.7330 15.13543134145619","EPOCH":"2023-01-22T17:10:54.538464","MEAN_ELEMENT_THEORY":"SGP4","INCLINATION":"53.0530","MEAN_MOTION_DDOT":"0.0000000000000","CENTER_NAME":"EARTH","NORAD_CAT_ID":"45782","CLASSIFICATION_TYPE":"U","LAUNCH_DATE":"2020-06-13","BSTAR":"0.00226780000000","ARG_OF_PERICENTER":"116.3897","REF_FRAME":"TEME"},{"NORAD_CAT_ID":"45783","CLASSIFICATION_TYPE":"U","REF_FRAME":"TEME","LAUNCH_DATE":"2020-06-13","BSTAR":"0.00010713000000","ARG_OF_PERICENTER":"88.4490","MEAN_ELEMENT_THEORY":"SGP4","TLE_LINE2":"2 45783  53.0544 283.0143 0000946  88.4490 271.6608 15.06397931145568","SEMIMAJOR_AXIS":"6925.355","EPOCH":"2023-01-22T17:52:26.800032","INCLINATION":"53.0544","CENTER_NAME":"EARTH","MEAN_MOTION_DDOT":"0.0000000000000","FILE":"3758080","ELEMENT_SET_NO":"999","ECCENTRICITY":"0.00009460","GP_ID":"223597613","MEAN_MOTION":"15.06397931","MEAN_ANOMALY":"271.6608","TIME_SYSTEM":"UTC","OBJECT_TYPE":"PAYLOAD","DECAY_DATE":null,"MEAN_MOTION_DOT":"0.00001315","SITE":"AFETR","APOAPSIS":"547.875","EPHEMERIS_TYPE":"0","TLE_LINE1":"1 45783U 20038BF  23022.74475463  .00001315  00000-0  10713-3 0  9994","OBJECT_NAME":"STARLINK-1505","RCS_SIZE":"LARGE","PERIAPSIS":"546.565","OBJECT_ID":"2020-038BF","REV_AT_EPOCH":"14556","COUNTRY_CODE":"US","RA_OF_ASC_NODE":"283.0143","PERIOD":"95.592"}];
